{
    "links": {
        "self": "http://www.neowsapp.com/rest/v1/neo/3655741?api_key=iIulBulltgU6a56xZRHN4H3l9WmuAYTsLGpBGhQ2"
    },
    "id": "3655741",
    "neo_reference_id": "3655741",
    "name": "(2014 AF5)",
    "designation": "2014 AF5",
    "nasa_jpl_url": "http://ssd.jpl.nasa.gov/sbdb.cgi?sstr=3655741",
    "absolute_magnitude_h": 28.8,
    "estimated_diameter": {
        "kilometers": {
            "estimated_diameter_min": 0.0046190746,
            "estimated_diameter_max": 0.0103285648
        },
        "meters": {
            "estimated_diameter_min": 4.6190746028,
            "estimated_diameter_max": 10.328564805
        },
        "miles": {
            "estimated_diameter_min": 0.002870159,
            "estimated_diameter_max": 0.0064178706
        },
        "feet": {
            "estimated_diameter_min": 15.1544447199,
            "estimated_diameter_max": 33.886368555
        }
    },
    "is_potentially_hazardous_asteroid": false,
    "close_approach_data": [
        {
            "close_approach_date": "2013-11-01",
            "close_approach_date_full": "2013-Nov-01 02:02",
            "epoch_date_close_approach": 1383271320000,
            "relative_velocity": {
                "kilometers_per_second": "11.5401915713",
                "kilometers_per_hour": "41544.6896568056",
                "miles_per_hour": "25814.254525919"
            },
            "miss_distance": {
                "astronomical": "0.1063987256",
                "lunar": "41.3891042584",
                "kilometers": "15917022.720474472",
                "miles": "9890379.2955208336"
            },
            "orbiting_body": "Venus"
        },
        {
            "close_approach_date": "2014-01-01",
            "close_approach_date_full": "2014-Jan-01 09:59",
            "epoch_date_close_approach": 1388570340000,
            "relative_velocity": {
                "kilometers_per_second": "14.5824500279",
                "kilometers_per_hour": "52496.8201004062",
                "miles_per_hour": "32619.4824673885"
            },
            "miss_distance": {
                "astronomical": "0.0006246885",
                "lunar": "0.2430038265",
                "kilometers": "93452.069013495",
                "miles": "58068.423016431"
            },
            "orbiting_body": "Moon"
        },
        {
            "close_approach_date": "2014-01-01",
            "close_approach_date_full": "2014-Jan-01 16:13",
            "epoch_date_close_approach": 1388592780000,
            "relative_velocity": {
                "kilometers_per_second": "14.6196534175",
                "kilometers_per_hour": "52630.7523028304",
                "miles_per_hour": "32702.7027295004"
            },
            "miss_distance": {
                "astronomical": "0.0006428849",
                "lunar": "0.2500822261",
                "kilometers": "96174.211695163",
                "miles": "59759.8840447294"
            },
            "orbiting_body": "Earth"
        },
        {
            "close_approach_date": "2023-07-18",
            "close_approach_date_full": "2023-Jul-18 19:44",
            "epoch_date_close_approach": 1689709440000,
            "relative_velocity": {
                "kilometers_per_second": "23.1254733929",
                "kilometers_per_hour": "83251.704214615",
                "miles_per_hour": "51729.3714326867"
            },
            "miss_distance": {
                "astronomical": "0.3120718787",
                "lunar": "121.3959608143",
                "kilometers": "46685288.340418369",
                "miles": "29008893.0144927322"
            },
            "orbiting_body": "Earth"
        },
        {
            "close_approach_date": "2086-02-23",
            "close_approach_date_full": "2086-Feb-23 08:54",
            "epoch_date_close_approach": 3665292840000,
            "relative_velocity": {
                "kilometers_per_second": "13.0763080685",
                "kilometers_per_hour": "47074.7090465849",
                "miles_per_hour": "29250.3935184183"
            },
            "miss_distance": {
                "astronomical": "0.0807093024",
                "lunar": "31.3959186336",
                "kilometers": "12073939.728225888",
                "miles": "7502398.2562897344"
            },
            "orbiting_body": "Mars"
        }
    ],
    "orbital_data": {
        "orbit_id": "4",
        "orbit_determination_date": "2017-04-06 08:43:02",
        "first_observation_date": "2014-01-02",
        "last_observation_date": "2014-01-03",
        "data_arc_in_days": 1,
        "observations_used": 25,
        "orbit_uncertainty": "7",
        "minimum_orbit_intersection": ".000682774",
        "jupiter_tisserand_invariant": "4.252",
        "epoch_osculation": "2459000.5",
        "eccentricity": ".5191547489115256",
        "semi_major_axis": "1.567256033075772",
        "inclination": "6.41495891800578",
        "ascending_node_longitude": "100.5592461094638",
        "orbital_period": "716.6520579475468",
        "perihelion_distance": ".7536076207442459",
        "perihelion_argument": "288.8220118132984",
        "aphelion_distance": "2.380904445407298",
        "perihelion_time": "2458762.427643894201",
        "mean_anomaly": "119.5922724948911",
        "mean_motion": ".5023358211389509",
        "equinox": "J2000",
        "orbit_class": {
            "orbit_class_type": "APO",
            "orbit_class_description": "Near-Earth asteroid orbits which cross the Earth’s orbit similar to that of 1862 Apollo",
            "orbit_class_range": "a (semi-major axis) > 1.0 AU; q (perihelion) < 1.017 AU"
        }
    },
    "is_sentry_object": false
}